NANOSATC-BR1            
1 40024U 14033Q   26124.53839148  .00017305  00000+0  59631-3 0  9999
2 40024  98.0757 153.1019 0002696   5.0940 355.0326 15.30095018647305
QB50P1                  
1 40025U 14033R   26124.77368971  .00009409  00000+0  47128-3 0  9991
2 40025  98.0980 132.8978 0009251  25.9923 334.1771 15.17587867646447
QB50P2                  
1 40032U 14033Y   26124.70269177  .00007346  00000+0  40154-3 0  9990
2 40032  98.0757 118.8987 0006493 337.1260  22.9680 15.14605528646081
PERSEUS-M2              
1 40037U 14033AD  26124.83855706  .00000984  00000+0  94544-4 0  9992
2 40037  97.9949  74.5104 0013348  82.8322 277.4415 14.95375701644307
PERSEUS-M1              
1 40039U 14033AF  26124.81489463  .00001287  00000+0  12155-3 0  9999
2 40039  97.9623  68.2476 0013133  81.9682 278.3027 14.95488876644151
POLYITAN-1              
1 40042U 14033AJ  26124.30390075  .00015787  00000+0  51680-3 0  9993
2 40042  98.0975 146.4635 0005445 307.0897  52.9844 15.31769828646874
TIGRISAT                
1 40043U 14033AK  26124.85871645  .00002082  00000+0  24552-3 0  9993
2 40043  97.7781 275.8819 0048690 215.4211 144.3768 14.84978206639195
AEROCUBE 6A             
1 40045U 14033AM  26124.73470150  .00007266  00000+0  61643-3 0  9999
2 40045  97.7192 292.1705 0039722 159.4210 200.8623 14.97613294640110
AEROCUBE 6B             
1 40046U 14033AN  26124.44502748  .00006342  00000+0  52014-3 0  9993
2 40046  97.7178 291.5885 0037380 152.8509 207.4679 14.99041078640204
CANX-4                  
1 40055U 14034C   26124.24273288  .00000849  00000+0  11637-3 0  9998
2 40055  98.3179 357.9316 0013421 147.3884 212.8159 14.81183044638024
CANX-5                  
1 40056U 14034D   26124.44433344  .00000842  00000+0  11536-3 0  9993
2 40056  98.3181 358.1818 0013430 146.9973 213.2079 14.81200462628863
UKUBE-1                 
1 40074U 14037F   26124.59071083  .00008356  00000+0  47927-3 0  9991
2 40074  98.4248 123.3097 0001123  40.5096 319.6216 15.12868221641968
BRITE-PL2 (HEWELIUSZ)   
1 40119U 14049B   26124.78678672  .00002587  00000+0  24518-3 0  9993
2 40119  97.9047 236.4694 0012653 251.0075 108.9774 14.94432602634963
