
    {
        "ARG_OF_PERICENTER": 5.094,
        "BSTAR": 0.00059631,
        "CLASSIFICATION_TYPE": "U",
        "ECCENTRICITY": 0.0002696,
        "ELEMENT_SET_NO": 999,
        "EPHEMERIS_TYPE": 0,
        "EPOCH": "2026-05-04T12:55:17.023872",
        "INCLINATION": 98.0757,
        "MEAN_ANOMALY": 355.0326,
        "MEAN_MOTION": 15.30095018,
        "MEAN_MOTION_DDOT": 0,
        "MEAN_MOTION_DOT": 0.00017305,
        "NORAD_CAT_ID": 40024,
        "OBJECT_ID": "2014-033Q",
        "OBJECT_NAME": "NANOSATC-BR1",
        "RA_OF_ASC_NODE": 153.1019,
        "REV_AT_EPOCH": 64730
    },
    {
        "ARG_OF_PERICENTER": 25.9923,
        "BSTAR": 0.00047128,
        "CLASSIFICATION_TYPE": "U",
        "ECCENTRICITY": 0.0009251,
        "ELEMENT_SET_NO": 999,
        "EPHEMERIS_TYPE": 0,
        "EPOCH": "2026-05-04T18:34:06.790944",
        "INCLINATION": 98.098,
        "MEAN_ANOMALY": 334.1771,
        "MEAN_MOTION": 15.17587867,
        "MEAN_MOTION_DDOT": 0,
        "MEAN_MOTION_DOT": 9.409e-05,
        "NORAD_CAT_ID": 40025,
        "OBJECT_ID": "2014-033R",
        "OBJECT_NAME": "QB50P1",
        "RA_OF_ASC_NODE": 132.8978,
        "REV_AT_EPOCH": 64644
    },
    {
        "ARG_OF_PERICENTER": 337.126,
        "BSTAR": 0.00040154,
        "CLASSIFICATION_TYPE": "U",
        "ECCENTRICITY": 0.0006493,
        "ELEMENT_SET_NO": 999,
        "EPHEMERIS_TYPE": 0,
        "EPOCH": "2026-05-04T16:51:52.568928",
        "INCLINATION": 98.0757,
        "MEAN_ANOMALY": 22.968,
        "MEAN_MOTION": 15.14605528,
        "MEAN_MOTION_DDOT": 0,
        "MEAN_MOTION_DOT": 7.346e-05,
        "NORAD_CAT_ID": 40032,
        "OBJECT_ID": "2014-033Y",
        "OBJECT_NAME": "QB50P2",
        "RA_OF_ASC_NODE": 118.8987,
        "REV_AT_EPOCH": 64608
    },
    {
        "ARG_OF_PERICENTER": 82.8322,
        "BSTAR": 9.4544e-05,
        "CLASSIFICATION_TYPE": "U",
        "ECCENTRICITY": 0.0013348,
        "ELEMENT_SET_NO": 999,
        "EPHEMERIS_TYPE": 0,
        "EPOCH": "2026-05-04T20:07:31.329984",
        "INCLINATION": 97.9949,
        "MEAN_ANOMALY": 277.4415,
        "MEAN_MOTION": 14.95375701,
        "MEAN_MOTION_DDOT": 0,
        "MEAN_MOTION_DOT": 9.84e-06,
        "NORAD_CAT_ID": 40037,
        "OBJECT_ID": "2014-033AD",
        "OBJECT_NAME": "PERSEUS-M2",
        "RA_OF_ASC_NODE": 74.5104,
        "REV_AT_EPOCH": 64430
    },
    {
        "ARG_OF_PERICENTER": 81.9682,
        "BSTAR": 0.00012155,
        "CLASSIFICATION_TYPE": "U",
        "ECCENTRICITY": 0.0013133,
        "ELEMENT_SET_NO": 999,
        "EPHEMERIS_TYPE": 0,
        "EPOCH": "2026-05-04T19:33:26.896032",
        "INCLINATION": 97.9623,
        "MEAN_ANOMALY": 278.3027,
        "MEAN_MOTION": 14.95488876,
        "MEAN_MOTION_DDOT": 0,
        "MEAN_MOTION_DOT": 1.287e-05,
        "NORAD_CAT_ID": 40039,
        "OBJECT_ID": "2014-033AF",
        "OBJECT_NAME": "PERSEUS-M1",
        "RA_OF_ASC_NODE": 68.2476,
        "REV_AT_EPOCH": 64415
    },
    {
        "ARG_OF_PERICENTER": 307.0897,
        "BSTAR": 0.00051680478,
        "CLASSIFICATION_TYPE": "U",
        "ECCENTRICITY": 0.0005445,
        "ELEMENT_SET_NO": 999,
        "EPHEMERIS_TYPE": 0,
        "EPOCH": "2026-05-04T07:17:37.024800",
        "INCLINATION": 98.0975,
        "MEAN_ANOMALY": 52.9844,
        "MEAN_MOTION": 15.31769828,
        "MEAN_MOTION_DDOT": 0,
        "MEAN_MOTION_DOT": 0.00015787,
        "NORAD_CAT_ID": 40042,
        "OBJECT_ID": "2014-033AJ",
        "OBJECT_NAME": "POLYITAN-1",
        "RA_OF_ASC_NODE": 146.4635,
        "REV_AT_EPOCH": 64687
    },
    {
        "ARG_OF_PERICENTER": 215.4211,
        "BSTAR": 0.00024552,
        "CLASSIFICATION_TYPE": "U",
        "ECCENTRICITY": 0.004869,
        "ELEMENT_SET_NO": 999,
        "EPHEMERIS_TYPE": 0,
        "EPOCH": "2026-05-04T20:36:33.101280",
        "INCLINATION": 97.7781,
        "MEAN_ANOMALY": 144.3768,
        "MEAN_MOTION": 14.84978206,
        "MEAN_MOTION_DDOT": 0,
        "MEAN_MOTION_DOT": 2.082e-05,
        "NORAD_CAT_ID": 40043,
        "OBJECT_ID": "2014-033AK",
        "OBJECT_NAME": "TIGRISAT",
        "RA_OF_ASC_NODE": 275.8819,
        "REV_AT_EPOCH": 63919
    },
    {
        "ARG_OF_PERICENTER": 159.421,
        "BSTAR": 0.00061643,
        "CLASSIFICATION_TYPE": "U",
        "ECCENTRICITY": 0.0039722,
        "ELEMENT_SET_NO": 999,
        "EPHEMERIS_TYPE": 0,
        "EPOCH": "2026-05-04T17:37:58.209600",
        "INCLINATION": 97.7192,
        "MEAN_ANOMALY": 200.8623,
        "MEAN_MOTION": 14.97613294,
        "MEAN_MOTION_DDOT": 0,
        "MEAN_MOTION_DOT": 7.266e-05,
        "NORAD_CAT_ID": 40045,
        "OBJECT_ID": "2014-033AM",
        "OBJECT_NAME": "AEROCUBE 6A",
        "RA_OF_ASC_NODE": 292.1705,
        "REV_AT_EPOCH": 64011
    },
    {
        "ARG_OF_PERICENTER": 152.8509,
        "BSTAR": 0.00052013808,
        "CLASSIFICATION_TYPE": "U",
        "ECCENTRICITY": 0.00373808,
        "ELEMENT_SET_NO": 999,
        "EPHEMERIS_TYPE": 0,
        "EPOCH": "2026-05-04T10:40:50.374272",
        "INCLINATION": 97.7178,
        "MEAN_ANOMALY": 207.4679,
        "MEAN_MOTION": 14.99041078,
        "MEAN_MOTION_DDOT": 0,
        "MEAN_MOTION_DOT": 6.342e-05,
        "NORAD_CAT_ID": 40046,
        "OBJECT_ID": "2014-033AN",
        "OBJECT_NAME": "AEROCUBE 6B",
        "RA_OF_ASC_NODE": 291.5885,
        "REV_AT_EPOCH": 64020
    },
    {
        "ARG_OF_PERICENTER": 147.3884,
        "BSTAR": 0.00011636611,
        "CLASSIFICATION_TYPE": "U",
        "ECCENTRICITY": 0.00134216,
        "ELEMENT_SET_NO": 999,
        "EPHEMERIS_TYPE": 0,
        "EPOCH": "2026-05-04T05:49:32.120832",
        "INCLINATION": 98.3179,
        "MEAN_ANOMALY": 212.8159,
        "MEAN_MOTION": 14.81183044,
        "MEAN_MOTION_DDOT": 0,
        "MEAN_MOTION_DOT": 8.49e-06,
        "NORAD_CAT_ID": 40055,
        "OBJECT_ID": "2014-034C",
        "OBJECT_NAME": "CANX-4",
        "RA_OF_ASC_NODE": 357.9316,
        "REV_AT_EPOCH": 63802
    },
    {
        "ARG_OF_PERICENTER": 146.9973,
        "BSTAR": 0.00011535501,
        "CLASSIFICATION_TYPE": "U",
        "ECCENTRICITY": 0.00134301,
        "ELEMENT_SET_NO": 999,
        "EPHEMERIS_TYPE": 0,
        "EPOCH": "2026-05-04T10:39:50.409216",
        "INCLINATION": 98.3181,
        "MEAN_ANOMALY": 213.2079,
        "MEAN_MOTION": 14.81200462,
        "MEAN_MOTION_DDOT": 0,
        "MEAN_MOTION_DOT": 8.42e-06,
        "NORAD_CAT_ID": 40056,
        "OBJECT_ID": "2014-034D",
        "OBJECT_NAME": "CANX-5",
        "RA_OF_ASC_NODE": 358.1818,
        "REV_AT_EPOCH": 62886
    },
    {
        "ARG_OF_PERICENTER": 40.5096,
        "BSTAR": 0.00047927,
        "CLASSIFICATION_TYPE": "U",
        "ECCENTRICITY": 0.0001123,
        "ELEMENT_SET_NO": 999,
        "EPHEMERIS_TYPE": 0,
        "EPOCH": "2026-05-04T14:10:37.415712",
        "INCLINATION": 98.4248,
        "MEAN_ANOMALY": 319.6216,
        "MEAN_MOTION": 15.12868221,
        "MEAN_MOTION_DDOT": 0,
        "MEAN_MOTION_DOT": 8.356e-05,
        "NORAD_CAT_ID": 40074,
        "OBJECT_ID": "2014-037F",
        "OBJECT_NAME": "UKUBE-1",
        "RA_OF_ASC_NODE": 123.3097,
        "REV_AT_EPOCH": 64196
    },
    {
        "ARG_OF_PERICENTER": 251.0075,
        "BSTAR": 0.00024518,
        "CLASSIFICATION_TYPE": "U",
        "ECCENTRICITY": 0.0012653,
        "ELEMENT_SET_NO": 999,
        "EPHEMERIS_TYPE": 0,
        "EPOCH": "2026-05-04T18:52:58.372608",
        "INCLINATION": 97.9047,
        "MEAN_ANOMALY": 108.9774,
        "MEAN_MOTION": 14.94432602,
        "MEAN_MOTION_DDOT": 0,
        "MEAN_MOTION_DOT": 2.587e-05,
        "NORAD_CAT_ID": 40119,
        "OBJECT_ID": "2014-049B",
        "OBJECT_NAME": "BRITE-PL2 (HEWELIUSZ)",
        "RA_OF_ASC_NODE": 236.4694,
        "REV_AT_EPOCH": 63496
    }